{
  "type": "FeatureCollection",
  "features": [
    {
      "type": "Feature",
      "properties": {
        "norad_id": 25590,
        "name": "COSMOS 2361",
        "group": "musson",
        "lat": 6.52415269122265,
        "lon": 169.87556511844343,
        "alt_km": 1000.5186073290888,
        "timestamp": "2025-12-03T19:33:07.245816+00:00",
        "meta_object_name": "COSMOS 2361",
        "meta_object_id": "1998-076A",
        "meta_epoch": "2025-12-03T12:27:39.665376",
        "meta_mean_motion": 13.73215963,
        "meta_eccentricity": 0.0030156,
        "meta_inclination": 82.9342,
        "meta_ra_of_asc_node": 350.9067,
        "meta_arg_of_pericenter": 292.3798,
        "meta_mean_anomaly": 221.4388,
        "meta_ephemeris_type": 0,
        "meta_classification_type": "U",
        "meta_norad_cat_id": 25590,
        "meta_element_set_no": 999,
        "meta_rev_at_epoch": 34984,
        "meta_bstar": 9.1432e-05,
        "meta_mean_motion_dot": 1e-06,
        "meta_mean_motion_ddot": 0,
        "tle_line1": "1 25590U 98076A   25337.51920909  .00000100  00000+0  91432-4 0  9999",
        "tle_line2": "2 25590  82.9342 350.9067 0030156 292.3798 221.4388 13.73215963349842"
      },
      "geometry": {
        "type": "Point",
        "coordinates": [
          169.87556511844343,
          6.52415269122265
        ]
      }
    },
    {
      "type": "Feature",
      "properties": {
        "norad_id": 26818,
        "name": "COSMOS 2378",
        "group": "musson",
        "lat": -36.25913001663606,
        "lon": -168.43276403701478,
        "alt_km": 968.1929991100669,
        "timestamp": "2025-12-03T19:33:07.245837+00:00",
        "meta_object_name": "COSMOS 2378",
        "meta_object_id": "2001-023A",
        "meta_epoch": "2025-12-03T12:20:33.404928",
        "meta_mean_motion": 13.74140764,
        "meta_eccentricity": 0.0031926,
        "meta_inclination": 82.928,
        "meta_ra_of_asc_node": 6.5658,
        "meta_arg_of_pericenter": 231.2032,
        "meta_mean_anomaly": 300.1952,
        "meta_ephemeris_type": 0,
        "meta_classification_type": "U",
        "meta_norad_cat_id": 26818,
        "meta_element_set_no": 999,
        "meta_rev_at_epoch": 22796,
        "meta_bstar": 7.9174e-05,
        "meta_mean_motion_dot": 9e-07,
        "meta_mean_motion_ddot": 0,
        "tle_line1": "1 26818U 01023A   25337.51427552  .00000090  00000+0  79174-4 0  9992",
        "tle_line2": "2 26818  82.9280   6.5658 0031926 231.2032 300.1952 13.74140764227963"
      },
      "geometry": {
        "type": "Point",
        "coordinates": [
          -168.43276403701478,
          -36.25913001663606
        ]
      }
    },
    {
      "type": "Feature",
      "properties": {
        "norad_id": 27436,
        "name": "COSMOS 2389",
        "group": "musson",
        "lat": 30.222340812107497,
        "lon": -42.273174675084505,
        "alt_km": 958.9167633407687,
        "timestamp": "2025-12-03T19:33:07.245851+00:00",
        "meta_object_name": "COSMOS 2389",
        "meta_object_id": "2002-026A",
        "meta_epoch": "2025-12-03T11:13:22.477728",
        "meta_mean_motion": 13.75153132,
        "meta_eccentricity": 0.0047774,
        "meta_inclination": 82.9494,
        "meta_ra_of_asc_node": 313.8495,
        "meta_arg_of_pericenter": 85.9242,
        "meta_mean_anomaly": 27.9919,
        "meta_ephemeris_type": 0,
        "meta_classification_type": "U",
        "meta_norad_cat_id": 27436,
        "meta_element_set_no": 999,
        "meta_rev_at_epoch": 18021,
        "meta_bstar": 6.8506e-05,
        "meta_mean_motion_dot": 8.2e-07,
        "meta_mean_motion_ddot": 0,
        "tle_line1": "1 27436U 02026A   25337.46762127  .00000082  00000+0  68506-4 0  9995",
        "tle_line2": "2 27436  82.9494 313.8495 0047774  85.9242  27.9919 13.75153132180212"
      },
      "geometry": {
        "type": "Point",
        "coordinates": [
          -42.273174675084505,
          30.222340812107497
        ]
      }
    },
    {
      "type": "Feature",
      "properties": {
        "norad_id": 27818,
        "name": "COSMOS 2398",
        "group": "musson",
        "lat": 70.86743297568378,
        "lon": -59.81870977109579,
        "alt_km": 973.5351234525988,
        "timestamp": "2025-12-03T19:33:07.245862+00:00",
        "meta_object_name": "COSMOS 2398",
        "meta_object_id": "2003-023A",
        "meta_epoch": "2025-12-03T09:17:02.662368",
        "meta_mean_motion": 13.7238429,
        "meta_eccentricity": 0.0032224,
        "meta_inclination": 82.9475,
        "meta_ra_of_asc_node": 279.591,
        "meta_arg_of_pericenter": 136.9059,
        "meta_mean_anomaly": 343.0817,
        "meta_ephemeris_type": 0,
        "meta_classification_type": "U",
        "meta_norad_cat_id": 27818,
        "meta_element_set_no": 999,
        "meta_rev_at_epoch": 12688,
        "meta_bstar": 4.677e-05,
        "meta_mean_motion_dot": 5.8e-07,
        "meta_mean_motion_ddot": 0,
        "tle_line1": "1 27818U 03023A   25337.38683637  .00000058  00000+0  46770-4 0  9998",
        "tle_line2": "2 27818  82.9475 279.5910 0032224 136.9059 343.0817 13.72384290126882"
      },
      "geometry": {
        "type": "Point",
        "coordinates": [
          -59.81870977109579,
          70.86743297568378
        ]
      }
    },
    {
      "type": "Feature",
      "properties": {
        "norad_id": 28380,
        "name": "COSMOS 2407",
        "group": "musson",
        "lat": 36.938118520250285,
        "lon": 34.17027774796844,
        "alt_km": 960.9835987463184,
        "timestamp": "2025-12-03T19:33:07.245874+00:00",
        "meta_object_name": "COSMOS 2407",
        "meta_object_id": "2004-028A",
        "meta_epoch": "2025-12-03T10:58:42.891168",
        "meta_mean_motion": 13.76312075,
        "meta_eccentricity": 0.0040529,
        "meta_inclination": 82.9613,
        "meta_ra_of_asc_node": 219.7646,
        "meta_arg_of_pericenter": 80.0151,
        "meta_mean_anomaly": 93.258,
        "meta_ephemeris_type": 0,
        "meta_classification_type": "U",
        "meta_norad_cat_id": 28380,
        "meta_element_set_no": 999,
        "meta_rev_at_epoch": 7295,
        "meta_bstar": 0.00010091,
        "meta_mean_motion_dot": 1.15e-06,
        "meta_mean_motion_ddot": 0,
        "tle_line1": "1 28380U 04028A   25337.45744087  .00000115  00000+0  10091-3 0  9994",
        "tle_line2": "2 28380  82.9613 219.7646 0040529  80.0151  93.2580 13.76312075 72957"
      },
      "geometry": {
        "type": "Point",
        "coordinates": [
          34.17027774796844,
          36.938118520250285
        ]
      }
    },
    {
      "type": "Feature",
      "properties": {
        "norad_id": 28521,
        "name": "COSMOS 2414",
        "group": "musson",
        "lat": 33.080068607635276,
        "lon": -163.96804913212986,
        "alt_km": 953.3323328599863,
        "timestamp": "2025-12-03T19:33:07.245884+00:00",
        "meta_object_name": "COSMOS 2414",
        "meta_object_id": "2005-002A",
        "meta_epoch": "2025-12-03T12:28:11.239392",
        "meta_mean_motion": 13.87901092,
        "meta_eccentricity": 0.0040327,
        "meta_inclination": 82.9499,
        "meta_ra_of_asc_node": 191.6315,
        "meta_arg_of_pericenter": 165.5822,
        "meta_mean_anomaly": 194.6502,
        "meta_ephemeris_type": 0,
        "meta_classification_type": "U",
        "meta_norad_cat_id": 28521,
        "meta_element_set_no": 999,
        "meta_rev_at_epoch": 5667,
        "meta_bstar": 9.5159e-05,
        "meta_mean_motion_dot": 1.3e-06,
        "meta_mean_motion_ddot": 0,
        "tle_line1": "1 28521U 05002A   25337.51957453  .00000130  00000+0  95159-4 0  9990",
        "tle_line2": "2 28521  82.9499 191.6315 0040327 165.5822 194.6502 13.87901092 56673"
      },
      "geometry": {
        "type": "Point",
        "coordinates": [
          -163.96804913212986,
          33.080068607635276
        ]
      }
    },
    {
      "type": "Feature",
      "properties": {
        "norad_id": 32052,
        "name": "COSMOS 2429",
        "group": "musson",
        "lat": -37.01625723250785,
        "lon": 175.2192534821711,
        "alt_km": 1013.9089481159035,
        "timestamp": "2025-12-03T19:33:07.245895+00:00",
        "meta_object_name": "COSMOS 2429",
        "meta_object_id": "2007-038A",
        "meta_epoch": "2025-12-03T11:30:59.967936",
        "meta_mean_motion": 13.75148024,
        "meta_eccentricity": 0.0039622,
        "meta_inclination": 82.9805,
        "meta_ra_of_asc_node": 350.1357,
        "meta_arg_of_pericenter": 63.0529,
        "meta_mean_anomaly": 297.4666,
        "meta_ephemeris_type": 0,
        "meta_classification_type": "U",
        "meta_norad_cat_id": 32052,
        "meta_element_set_no": 999,
        "meta_rev_at_epoch": 91475,
        "meta_bstar": 7.316e-05,
        "meta_mean_motion_dot": 8.6e-07,
        "meta_mean_motion_ddot": 0,
        "tle_line1": "1 32052U 07038A   25337.47986074  .00000086  00000+0  73160-4 0  9999",
        "tle_line2": "2 32052  82.9805 350.1357 0039622  63.0529 297.4666 13.75148024914758"
      },
      "geometry": {
        "type": "Point",
        "coordinates": [
          175.2192534821711,
          -37.01625723250785
        ]
      }
    },
    {
      "type": "Feature",
      "properties": {
        "norad_id": 35635,
        "name": "COSMOS 2454",
        "group": "musson",
        "lat": 18.527326964113406,
        "lon": 177.78531117680728,
        "alt_km": 926.1817581654259,
        "timestamp": "2025-12-03T19:33:07.245915+00:00",
        "meta_object_name": "COSMOS 2454",
        "meta_object_id": "2009-039A",
        "meta_epoch": "2025-12-03T12:49:56.586144",
        "meta_mean_motion": 13.89926796,
        "meta_eccentricity": 0.0020482,
        "meta_inclination": 82.9556,
        "meta_ra_of_asc_node": 175.6227,
        "meta_arg_of_pericenter": 98.3487,
        "meta_mean_anomaly": 320.4945,
        "meta_ephemeris_type": 0,
        "meta_classification_type": "U",
        "meta_norad_cat_id": 35635,
        "meta_element_set_no": 999,
        "meta_rev_at_epoch": 83022,
        "meta_bstar": 7.4731e-05,
        "meta_mean_motion_dot": 1.08e-06,
        "meta_mean_motion_ddot": 0,
        "tle_line1": "1 35635U 09039A   25337.53468271  .00000108  00000+0  74731-4 0  9993",
        "tle_line2": "2 35635  82.9556 175.6227 0020482  98.3487 320.4945 13.89926796830226"
      },
      "geometry": {
        "type": "Point",
        "coordinates": [
          177.78531117680728,
          18.527326964113406
        ]
      }
    },
    {
      "type": "Feature",
      "properties": {
        "norad_id": 36519,
        "name": "COSMOS 2463",
        "group": "musson",
        "lat": -72.94937669404788,
        "lon": 9.519297490795026,
        "alt_km": 978.1323943527914,
        "timestamp": "2025-12-03T19:33:07.245941+00:00",
        "meta_object_name": "COSMOS 2463",
        "meta_object_id": "2010-017A",
        "meta_epoch": "2025-12-03T06:14:02.812128",
        "meta_mean_motion": 13.71647845,
        "meta_eccentricity": 0.0035106,
        "meta_inclination": 82.9622,
        "meta_ra_of_asc_node": 33.6785,
        "meta_arg_of_pericenter": 315.2427,
        "meta_mean_anomaly": 111.9683,
        "meta_ephemeris_type": 0,
        "meta_classification_type": "U",
        "meta_norad_cat_id": 36519,
        "meta_element_set_no": 999,
        "meta_rev_at_epoch": 78107,
        "meta_bstar": 8.0288e-05,
        "meta_mean_motion_dot": 8.7e-07,
        "meta_mean_motion_ddot": 0,
        "tle_line1": "1 36519U 10017A   25337.25975477  .00000087  00000+0  80288-4 0  9993",
        "tle_line2": "2 36519  82.9622  33.6785 0035106 315.2427 111.9683 13.71647845781074"
      },
      "geometry": {
        "type": "Point",
        "coordinates": [
          9.519297490795026,
          -72.94937669404788
        ]
      }
    }
  ]
}